<?xml version="1.0" encoding="UTF-8"?>
<kml xmlns="http://www.opengis.net/kml/2.2" xmlns:gx="http://www.google.com/kml/ext/2.2" xmlns:kml="http://www.opengis.net/kml/2.2" xmlns:atom="http://www.w3.org/2005/Atom">
<Document id="document">
	<name>Untitled map project</name>
	<visibility>0</visibility>
	<gx:CascadingStyle kml:id="__managed_style_08544ADA063FDD108DF1_highlight">
		<Style>
			<IconStyle>
				<scale>1.2</scale>
				<Icon>
					<href>https://earth.google.com/earth/document/icon?color=1976d2&amp;id=2000&amp;scale=4</href>
				</Icon>
				<hotSpot x="64" y="128" xunits="pixels" yunits="insetPixels"/>
			</IconStyle>
			<LineStyle>
				<color>ff2dc0fb</color>
				<width>4</width>
			</LineStyle>
			<PolyStyle>
				<color>40ffffff</color>
			</PolyStyle>
			<BalloonStyle>
				<displayMode>hide</displayMode>
			</BalloonStyle>
		</Style>
	</gx:CascadingStyle>
	<gx:CascadingStyle kml:id="__managed_style_08544ADA063FDD108DF1_normal">
		<Style>
			<IconStyle>
				<Icon>
					<href>https://earth.google.com/earth/document/icon?color=1976d2&amp;id=2000&amp;scale=4</href>
				</Icon>
				<hotSpot x="64" y="128" xunits="pixels" yunits="insetPixels"/>
			</IconStyle>
			<LineStyle>
				<color>ff2dc0fb</color>
				<width>2.66667</width>
			</LineStyle>
			<PolyStyle>
				<color>40ffffff</color>
			</PolyStyle>
			<BalloonStyle>
				<displayMode>hide</displayMode>
			</BalloonStyle>
		</Style>
	</gx:CascadingStyle>
	<StyleMap id="__managed_style_08544ADA063FDD108DF1">
		<Pair>
			<key>normal</key>
			<styleUrl>#__managed_style_08544ADA063FDD108DF1_normal</styleUrl>
		</Pair>
		<Pair>
			<key>highlight</key>
			<styleUrl>#__managed_style_08544ADA063FDD108DF1_highlight</styleUrl>
		</Pair>
	</StyleMap>
	<Placemark id="0CCFFEC86E3FDD108DB3">
		<name>Untitled polygon</name>
		<LookAt>
			<longitude>24.55790978807176</longitude>
			<latitude>34.9393978134383</latitude>
			<altitude>-46.45448450953965</altitude>
			<heading>5.4652184210596</heading>
			<tilt>6.038752062600603</tilt>
			<gx:fovy>34.99999992222583</gx:fovy>
			<range>181671.5448714607</range>
			<altitudeMode>absolute</altitudeMode>
		</LookAt>
		<styleUrl>#__managed_style_08544ADA063FDD108DF1</styleUrl>
		<Polygon>
			<outerBoundaryIs>
				<LinearRing>
					<coordinates>
						23.96183381589081,35.21344736086564,0 23.93635754601803,34.85746889861691,0 24.60725449587833,34.8016863349881,0 24.64827053481124,35.15188544844575,0 23.96183381589081,35.21344736086564,0 
					</coordinates>
				</LinearRing>
			</outerBoundaryIs>
		</Polygon>
	</Placemark>
</Document>
</kml>
